HORYU-4                 
1 41340U 16012D   20069.71363763  .00000469  00000-0  28729-4 0  9996
2 41340  31.0045 246.9365 0014093 239.6810 120.2432 15.01434431222879
E-ST@R-II               
1 41459U 16025D   20070.54926208  .00002289  00000-0  11878-3 0  9991
2 41459  98.0969 175.4683 0166080 184.0173 175.9697 15.06131205212558
AAUSAT 4                
1 41460U 16025E   20070.56865908  .00003850  00000-0  19135-3 0  9993
2 41460  98.0907 177.4760 0155508 174.0809 186.2347 15.08310518212733
DIWATA-1                
1 41463U 98067HT  20070.36409093  .00176765  25964-4  21355-3 0  9992
2 41463  51.6176 289.6359 0003306 218.3576 312.2829 16.07780578222048
BEESAT-4                
1 41619U 16040W   20070.14175612  .00001183  00000-0  52032-4 0  9997
2 41619  97.3322 131.9761 0011710 161.7257 198.4403 15.23745893194275
CANX-7                  
1 41788U 16059F   20070.50889922  .00003674  00000-0  52542-3 0  9992
2 41788  98.2510 155.9719 0028093 240.3736 119.4715 14.77024924185203
RAVAN                   
1 41849U 16067B   20069.78242066  .00001136  00000-0  10021-3 0  9996
2 41849  97.9253 178.0052 0007798 201.7260 158.3632 14.98471899181698
CELTEE 1                
1 41850U 16067C   20069.82089007  .00000121  00000-0  15742-4 0  9996
2 41850  97.9186 176.0605 0008271 213.3844 146.6856 14.97128125181598
OPTICUBE 04             
1 41851U 16067D   20070.26931239 -.00000475  00000-0 -36078-4 0  9999
2 41851  97.9184 176.1863 0008037 214.5506 145.5194 14.96891248181643
AEROCUBE 8D             
1 41852U 16067E   20069.81583254  .00000034  00000-0  83018-5 0  9995
2 41852  97.9186 175.5573 0009020 216.5992 143.4614 14.96849686181554
AEROCUBE 8C             
1 41853U 16067F   20070.11247259  .00000716  00000-0  67806-4 0  9996
2 41853  97.9194 175.7712 0009061 214.4034 145.6601 14.96820610181590
PROMETHEUS 2-1          
1 41854U 16067G   20070.23600005  .00000876  00000-0  81151-4 0  9998
2 41854  97.9198 176.1643 0009608 213.1207 146.9414 14.97105517181621
PROMETHEUS 2-3          
1 41855U 16067H   20070.03658853  .00000892  00000-0  82496-4 0  9992
2 41855  97.9200 175.9899 0009749 214.2758 145.7835 14.97115048181595
INS-1B                  
1 41954U 17008G   20070.17902270  .00001091  00000-0  47211-4 0  9996
2 41954  97.3659 136.3141 0007493 295.1760  64.8700 15.24530495170243
BGUSAT                  
1 41999U 17008BD  20069.75576706  .00001856  00000-0  72616-4 0  9994
2 41999  97.3761 139.5053 0006525 309.8713  50.1952 15.27082410169730
DIDO-2                  
1 42000U 17008BE  20070.12472364  .00000717  00000-0  32203-4 0  9999
2 42000  97.3668 136.7959 0007215 318.7447  41.3245 15.24312014169633
PEASSS                  
1 42015U 17008BV  20070.17434276  .00000965  00000-0  41066-4 0  9992
2 42015  97.3687 138.2514 0005188 326.8430  33.2483 15.25391239170210
AL-FARABI 1             
1 42016U 17008BW  20070.18265526  .00001280  00000-0  52324-4 0  9994
2 42016  97.3712 139.1474 0005014 325.6841  34.4073 15.26168885170382
NAYIF-1 (EO-88)         
1 42017U 17008BX  20070.42621256  .00001278  00000-0  52201-4 0  9999
2 42017  97.3707 139.3993 0004980 324.5794  35.5113 15.26207593170445
NSIGHT                  
1 42726U 98067MF  20070.09954347  .00117610  16451-4  33107-3 0  9995
2 42726  51.6296  15.7775 0005338 127.2400 232.9095 15.93327018159755
UCLSAT                  
1 42765U 17036A   20070.10555788  .00001081  00000-0  48432-4 0  9994
2 42765  97.3146 126.9566 0011865  24.5526 335.6274 15.23295587150863
LITUANICASAT-2          
1 42768U 17036D   20070.11326007  .00001754  00000-0  75825-4 0  9991
2 42768  97.3197 126.7962 0014880  13.0484 347.1135 15.23685467150714
AALTO-1                 
1 42775U 17036L   20069.83361795  .00000651  00000-0  31728-4 0  9998
2 42775  97.3126 124.7825 0014202  16.7546 343.4156 15.21692379150526
URSA MAIOR              
1 42776U 17036M   20070.22889394  .00000728  00000-0  34968-4 0  9998
2 42776  97.3137 125.4100 0013967  15.2719 344.8937 15.21859635150595
COMPASS 2               
1 42777U 17036N   20070.12833443  .00001399  00000-0  61229-4 0  9997
2 42777  97.3188 127.2598 0012544  15.4118 344.7498 15.23614181150675
DIAMOND RED             
1 42783U 17036U   20069.92486326  .00000826  00000-0  38403-4 0  9996
2 42783  97.3148 126.1476 0012615  26.4128 333.7749 15.22645433150606
PEGASUS                 
1 42784U 17036V   20070.37377477  .00000978  00000-0  44458-4 0  9999
2 42784  97.3151 126.9460 0012420  24.0846 336.0969 15.23000079150698
DIAMOND GREEN           
1 42785U 17036W   20070.12078862  .00000793  00000-0  36974-4 0  9998
2 42785  97.3150 126.3706 0012502  26.4358 333.7514 15.22646582150627
DIAMOND BLUE            
1 42786U 17036X   20069.66000592  .00000846  00000-0  39240-4 0  9999
2 42786  97.3150 125.9181 0012422  28.2777 331.9132 15.22644901150557
NUDTSAT                 
1 42787U 17036Y   20070.57813791  .00001496  00000-0  64140-4 0  9994
2 42787  97.3205 128.3222 0013008  15.5851 344.5785 15.24206823150637
SUCHAI                  
1 42788U 17036Z   20069.90703521  .00001145  00000-0  50799-4 0  9995
2 42788  97.3159 126.9911 0011966  24.5508 335.6297 15.23507227150725
SKCUBE                  
1 42789U 17036AA  20069.68060867  .00001083  00000-0  48403-4 0  9990
2 42789  97.3154 126.6519 0011873  25.6830 334.4994 15.23366849150600
VZLUSAT-1               
1 42790U 17036AB  20069.84428164  .00001467  00000-0  62999-4 0  9990
2 42790  97.3175 127.6017 0011307  23.7969 336.3789 15.24193241150678
ROBUSTA-1B              
1 42792U 17036AD  20069.84363147  .00001111  00000-0  49336-4 0  9997
2 42792  97.3155 127.0317 0011448  25.9555 334.2254 15.23551823150651
CICERO 6                
1 42793U 17036AE  20070.31589569  .00000751  00000-0  34857-4 0  9991
2 42793  97.3134 127.0207 0010820  27.0691 333.1108 15.22972507150778
D-SAT                   
1 42794U 17036AF  20070.06809025  .00000117  00000-0  15688-4 0  9993
2 42794  97.5065 107.5776 0125584 337.3707  22.2002 14.91231696147886
CORVUS BC2              
1 42846U 17042X   20069.92105628  .00000063  00000-0  11480-4 0  9995
2 42846  97.5373 317.8835 0008138 247.2448 112.7912 14.92069029144561
CORVUS BC1              
1 42847U 17042Y   20069.92348795  .00000026  00000-0  78071-5 0  9999
2 42847  97.5376 318.0374 0007773 246.2632 113.7772 14.92169921144561
MIRATA                  
1 43015U 17073C   20069.85492050  .00001361  00000-0  11028-3 0  9997
2 43015  97.7222 345.8481 0254436  13.7656 347.0325 14.79460732124496
MAKERSAT 0              
1 43016U 17073D   20069.72096052  .00000977  00000-0  80713-4 0  9996
2 43016  97.7258 345.9148 0256970  15.0232 345.8431 14.79079714124453
ASTERIA                 
1 43020U 98067NH  20070.24590493  .00126060  17128-4  37318-3 0  9997
2 43020  51.6427  27.7365 0002053 116.0234 244.0984 15.92353657131791
DELLINGR (RBLE)         
1 43021U 98067NJ  20070.54975950  .00012177  00000-0  11221-3 0  9991
2 43021  51.6361  64.3392 0002705  50.9911 309.1326 15.68088988131336
AEROCUBE 7B (OCSD B)    
1 43042U 17071F   20070.42083090  .00003673  00000-0  91605-4 0  9998
2 43042  51.6374 192.2594 0004786  47.8903 312.2489 15.42877610127087
AEROCUBE 7C (OCSD C)    
1 43043U 17071G   20069.64534016  .00003256  00000-0  82365-4 0  9990
2 43043  51.6373 196.0957 0005008  49.1698 310.9721 15.42848778126936
CHEFSAT                 
1 43044U 17071H   20070.17894113  .00007294  00000-0  15087-3 0  9990
2 43044  51.6384 181.8867 0004615  51.4781 308.6620 15.46898893127179
ASGARDIA 1              
1 43049U 17071N   20069.90179916  .00003105  00000-0  78739-4 0  9992
2 43049  51.6385 194.1191 0002755  67.1268 293.0008 15.42932139126982
ISARA                   
1 43050U 17071P   20070.36178981  .00005953  00000-0  12806-3 0  9992
2 43050  51.6365 183.0126 0002515  65.4444 294.6805 15.46117923127161
PROPCUBE 2 (FAUNA)      
1 43052U 17071R   20070.30402578  .00003258  00000-0  81108-4 0  9998
2 43052  51.6380 190.8240 0002667  65.1355 294.9908 15.43332293127050
CORVUS BC3              
1 43118U 18004H   20069.84187972  .00000641  00000-0  30071-4 0  9999
2 43118  97.4541 140.8876 0011511  48.8622 311.3606 15.23211046119839
MICROMAS-2A             
1 43131U 18004W   20070.18217472  .00001663  00000-0  69616-4 0  9994
2 43131  97.4580 142.6229 0010290  48.3410 311.8707 15.24934700119963
SPACEBEE-4              
1 43139U 18004AE  20070.09845522  .00002246  00000-0  89927-4 0  9990
2 43139  97.4608 143.4940 0009603  51.0181 309.1911 15.26077594119994
SPACEBEE-3              
1 43140U 18004AF  20069.63867381  .00002972  00000-0  11538-3 0  9995
2 43140  97.4624 143.5738 0009277  51.9408 308.2666 15.26851020119966
SPACEBEE-2              
1 43141U 18004AG  20070.42322148  .00003079  00000-0  11849-3 0  9996
2 43141  97.4634 144.5570 0009159  49.0416 311.1614 15.27121725120094
SPACEBEE-1              
1 43142U 18004AH  20070.15035858  .00003232  00000-0  12310-3 0  9991
2 43142  97.4637 144.4897 0009145  49.7217 310.4820 15.27423060120054
CICERO 7                
1 43143U 18004AJ  20070.44951816  .00001515  00000-0  63569-4 0  9990
2 43143  97.4561 143.0888 0008687  57.0651 303.1421 15.25009655120021
GOMX-4B                 
1 43196U 18015E   20069.89206784  .00000305  00000-0  15440-4 0  9995
2 43196  97.4210 199.2962 0020346  94.0001 266.3560 15.24166790116732
GOMX-4A                 
1 43197U 18015F   20070.58442336  .00000539  00000-0  24826-4 0  9996
2 43197  97.4197 200.0419 0020928  93.2211 325.2556 15.24358916116851
1KUNS-PF                
1 43466U 98067NP  20070.36784735  .00071669  00000-0  33224-3 0  9991
2 43466  51.6313  53.1372 0003382  83.6279 276.5109 15.82775323104723
UBAKUSAT                
1 43467U 98067NQ  20070.37477893  .00021219  00000-0  17340-3 0  9994
2 43467  51.6335  69.8417 0002529  35.7029 324.4137 15.70516860104512
